GLOBALSTAR M057         
1 25943U 99058A   25314.10738661 -.00000072  00000+0  19395-3 0  9990
2 25943  51.9989 294.0811 0002486 320.2893  39.7774 12.24828271184814
GLOBALSTAR M059         
1 25944U 99058B   25314.84860753 -.00000089  00000+0 -40612-4 0  9996
2 25944  51.9988 170.4042 0000848  82.6519 290.4369 11.99986888591651
GLOBALSTAR M056         
1 25945U 99058C   25314.84472142 -.00000068  00000+0  23172-3 0  9995
2 25945  51.9934 168.6147 0001925  94.3704 278.8173 12.04781714180308
GLOBALSTAR M031         
1 25946U 99058D   25314.54482674 -.00000113  00000+0 -22856-3 0  9994
2 25946  51.9977  52.9927 0002062 120.0073 253.0626 12.16043150182359
GLOBALSTAR M039         
1 25961U 99062A   25314.01438310 -.00000070  00000+0  19049-3 0  9997
2 25961  51.9824 184.5516 0002177 334.1183  25.9574 12.62336245198637
GLOBALSTAR M034         
1 25962U 99062B   25314.58761734 -.00000087  00000+0 -94062-4 0  9997
2 25962  51.9899 350.8294 0014005 318.3417 210.1084 11.79450345155663
GLOBALSTAR M029         
1 25963U 99062C   25314.61800560 -.00000071  00000+0  18647-3 0  9999
2 25963  51.9817  58.9343 0002816  61.9479 311.3537 11.99903150186706
GLOBALSTAR M061         
1 25964U 99062D   25314.07200726 -.00000072  00000+0  14053-3 0  9996
2 25964  51.9765 178.1417 0004864 235.4712 279.1760 11.76777696138355
